export const gpsOMMs = [
  {
    OBJECT_NAME: "GPS BIIRM-3 (PRN 10)",
    OBJECT_ID: "2007-047A",
    EPOCH: "2024-05-23T00:00:00.000000",
    MEAN_MOTION: 2.00567897,
    ECCENTRICITY: 0.0106,
    INCLINATION: 55.1,
    RA_OF_ASC_NODE: 75.1,
    ARG_OF_PERICENTER: 90.0,
    MEAN_ANOMALY: 0.0,
    BSTAR: 0.0001,
    MEAN_MOTION_DOT: 0,
    MEAN_MOTION_DDOT: 0,
    NORAD_CAT_ID: 32260
  },
  {
    OBJECT_NAME: "GPS BIIR-2 (PRN 13)",
    OBJECT_ID: "1990-103A",
    EPOCH: "2024-05-23T00:00:00.000000",
    MEAN_MOTION: 2.00566673,
    ECCENTRICITY: 0.0157,
    INCLINATION: 54.9,
    RA_OF_ASC_NODE: 250.1,
    ARG_OF_PERICENTER: 30.0,
    MEAN_ANOMALY: 180.0,
    BSTAR: 0.0001,
    MEAN_MOTION_DOT: 0,
    MEAN_MOTION_DDOT: 0,
    NORAD_CAT_ID: 20959
  },
  {
    OBJECT_NAME: "GPS IIF-3 (PRN 08)",
    OBJECT_ID: "2012-005A",
    EPOCH: "2024-05-23T00:00:00.000000",
    MEAN_MOTION: 2.00564523,
    ECCENTRICITY: 0.0073,
    INCLINATION: 55.0,
    RA_OF_ASC_NODE: 120.5,
    ARG_OF_PERICENTER: 0.0,
    MEAN_ANOMALY: 250.0,
    BSTAR: 0.0001,
    MEAN_MOTION_DOT: 0,
    MEAN_MOTION_DDOT: 0,
    NORAD_CAT_ID: 38089
  },
  {
    OBJECT_NAME: "GPS IIF-4 (PRN 03)",
    OBJECT_ID: "2012-032A",
    EPOCH: "2024-05-23T00:00:00.000000",
    MEAN_MOTION: 2.00570015,
    ECCENTRICITY: 0.0059,
    INCLINATION: 55.0,
    RA_OF_ASC_NODE: 180.0,
    ARG_OF_PERICENTER: 180.0,
    MEAN_ANOMALY: 10.0,
    BSTAR: 0.0001,
    MEAN_MOTION_DOT: 0,
    MEAN_MOTION_DDOT: 0,
    NORAD_CAT_ID: 38774
  },
  {
    OBJECT_NAME: "GPS IIF-5 (PRN 04)",
    OBJECT_ID: "2014-008A",
    EPOCH: "2024-05-23T00:00:00.000000",
    MEAN_MOTION: 2.00569845,
    ECCENTRICITY: 0.0061,
    INCLINATION: 55.0,
    RA_OF_ASC_NODE: 210.0,
    ARG_OF_PERICENTER: 90.0,
    MEAN_ANOMALY: 45.0,
    BSTAR: 0.0001,
    MEAN_MOTION_DOT: 0,
    MEAN_MOTION_DDOT: 0,
    NORAD_CAT_ID: 39634
  },
  {
    OBJECT_NAME: "GPS IIF-6 (PRN 05)",
    OBJECT_ID: "2014-041A",
    EPOCH: "2024-05-23T00:00:00.000000",
    MEAN_MOTION: 2.00570023,
    ECCENTRICITY: 0.0062,
    INCLINATION: 55.0,
    RA_OF_ASC_NODE: 240.0,
    ARG_OF_PERICENTER: 60.0,
    MEAN_ANOMALY: 90.0,
    BSTAR: 0.0001,
    MEAN_MOTION_DOT: 0,
    MEAN_MOTION_DDOT: 0,
    NORAD_CAT_ID: 40105
  },
  {
    OBJECT_NAME: "GPS IIF-7 (PRN 14)",
    OBJECT_ID: "2014-068A",
    EPOCH: "2024-05-23T00:00:00.000000",
    MEAN_MOTION: 2.00569978,
    ECCENTRICITY: 0.0057,
    INCLINATION: 55.0,
    RA_OF_ASC_NODE: 300.0,
    ARG_OF_PERICENTER: 30.0,
    MEAN_ANOMALY: 135.0,
    BSTAR: 0.0001,
    MEAN_MOTION_DOT: 0,
    MEAN_MOTION_DDOT: 0,
    NORAD_CAT_ID: 40374
  },
  {
    OBJECT_NAME: "GPS IIF-10 (PRN 17)",
    OBJECT_ID: "2015-062A",
    EPOCH: "2024-05-23T00:00:00.000000",
    MEAN_MOTION: 2.00570211,
    ECCENTRICITY: 0.0064,
    INCLINATION: 55.0,
    RA_OF_ASC_NODE: 60.0,
    ARG_OF_PERICENTER: 60.0,
    MEAN_ANOMALY: 200.0,
    BSTAR: 0.0001,
    MEAN_MOTION_DOT: 0,
    MEAN_MOTION_DDOT: 0,
    NORAD_CAT_ID: 40890
  },
  {
    OBJECT_NAME: "GPS IIF-11 (PRN 18)",
    OBJECT_ID: "2016-007A",
    EPOCH: "2024-05-23T00:00:00.000000",
    MEAN_MOTION: 2.00569866,
    ECCENTRICITY: 0.0054,
    INCLINATION: 55.0,
    RA_OF_ASC_NODE: 90.0,
    ARG_OF_PERICENTER: 45.0,
    MEAN_ANOMALY: 170.0,
    BSTAR: 0.0001,
    MEAN_MOTION_DOT: 0,
    MEAN_MOTION_DDOT: 0,
    NORAD_CAT_ID: 41177
  },
  {
    OBJECT_NAME: "GPS IIF-12 (PRN 19)",
    OBJECT_ID: "2016-065A",
    EPOCH: "2024-05-23T00:00:00.000000",
    MEAN_MOTION: 2.00569911,
    ECCENTRICITY: 0.0059,
    INCLINATION: 55.0,
    RA_OF_ASC_NODE: 330.0,
    ARG_OF_PERICENTER: 10.0,
    MEAN_ANOMALY: 300.0,
    BSTAR: 0.0001,
    MEAN_MOTION_DOT: 0,
    MEAN_MOTION_DDOT: 0,
    NORAD_CAT_ID: 41328
  }
];
